start=new Date('2021-11-09T00:00:00.000Z').valueOf();
sats=[{"SEMIMAJOR_AXIS":"6925.372","REF_FRAME":"TEME","ARG_OF_PERICENTER":"91.7816","MEAN_MOTION":"15.06392437","REV_AT_EPOCH":"3395","OBJECT_ID":"2021-027T","CENTER_NAME":"EARTH","MEAN_MOTION_DDOT":"0.0000000000000","MEAN_ELEMENT_THEORY":"SGP4","GP_ID":"189271979","RCS_SIZE":"LARGE","RA_OF_ASC_NODE":"74.0986","PERIOD":"95.593","OBJECT_NAME":"STARLINK-2445","TLE_LINE2":"2 48109  53.0560  74.0986 0001568  91.7816 268.3353 15.06392437 33959","APOAPSIS":"548.323","EPHEMERIS_TYPE":"0","INCLINATION":"53.0560","PERIAPSIS":"546.151","COUNTRY_CODE":"US","TIME_SYSTEM":"UTC","EPOCH":"2021-11-08T13:14:44.846880","NORAD_CAT_ID":"48109","OBJECT_TYPE":"PAYLOAD","DECAY_DATE":null,"ECCENTRICITY":"0.00015680","FILE":"3209238","MEAN_MOTION_DOT":"0.00003270","SITE":"AFETR","BSTAR":"0.00023836000000","CLASSIFICATION_TYPE":"U","MEAN_ANOMALY":"268.3353","LAUNCH_DATE":"2021-04-07","TLE_LINE1":"1 48109U 21027T   21312.55190795  .00003270  00000-0  23836-3 0  9991","ELEMENT_SET_NO":"999"},{"SEMIMAJOR_AXIS":"6925.391","REF_FRAME":"TEME","MEAN_MOTION":"15.06386277","ARG_OF_PERICENTER":"72.5347","REV_AT_EPOCH":"3370","CENTER_NAME":"EARTH","MEAN_MOTION_DDOT":"0.0000000000000","MEAN_ELEMENT_THEORY":"SGP4","GP_ID":"189275986","OBJECT_ID":"2021-027U","RA_OF_ASC_NODE":"63.9151","RCS_SIZE":"LARGE","TLE_LINE2":"2 48110  53.0562  63.9151 0001342  72.5347 287.5788 15.06386277 33703","PERIOD":"95.593","OBJECT_NAME":"STARLINK-2447","APOAPSIS":"548.185","INCLINATION":"53.0562","EPHEMERIS_TYPE":"0","EPOCH":"2021-11-08T14:14:28.345632","NORAD_CAT_ID":"48110","TIME_SYSTEM":"UTC","COUNTRY_CODE":"US","PERIAPSIS":"546.326","OBJECT_TYPE":"PAYLOAD","DECAY_DATE":null,"MEAN_MOTION_DOT":"0.00001738","FILE":"3209315","ECCENTRICITY":"0.00013420","SITE":"AFETR","BSTAR":"0.00013556000000","CLASSIFICATION_TYPE":"U","MEAN_ANOMALY":"287.5788","TLE_LINE1":"1 48110U 21027U   21312.59338363  .00001738  00000-0  13556-3 0  9997","LAUNCH_DATE":"2021-04-07","ELEMENT_SET_NO":"999"},{"APOAPSIS":"548.003","EPHEMERIS_TYPE":"0","INCLINATION":"53.0576","PERIAPSIS":"546.430","COUNTRY_CODE":"US","NORAD_CAT_ID":"48111","EPOCH":"2021-11-08T14:07:47.224128","TIME_SYSTEM":"UTC","RCS_SIZE":"LARGE","RA_OF_ASC_NODE":"63.9466","PERIOD":"95.592","OBJECT_NAME":"STARLINK-2448","TLE_LINE2":"2 48111  53.0576  63.9466 0001136  80.8705 279.2412 15.06399043 34101","REV_AT_EPOCH":"3410","ARG_OF_PERICENTER":"80.8705","MEAN_MOTION":"15.06399043","OBJECT_ID":"2021-027V","MEAN_MOTION_DDOT":"0.0000000000000","CENTER_NAME":"EARTH","MEAN_ELEMENT_THEORY":"SGP4","GP_ID":"189271477","SEMIMAJOR_AXIS":"6925.351","REF_FRAME":"TEME","LAUNCH_DATE":"2021-04-07","TLE_LINE1":"1 48111U 21027V   21312.58874102  .00000204  00000-0  32609-4 0  9991","ELEMENT_SET_NO":"999","CLASSIFICATION_TYPE":"U","MEAN_ANOMALY":"279.2412","FILE":"3209238","ECCENTRICITY":"0.00011360","MEAN_MOTION_DOT":"0.00000204","BSTAR":"0.00003260900000","SITE":"AFETR","OBJECT_TYPE":"PAYLOAD","DECAY_DATE":null},{"REF_FRAME":"TEME","SEMIMAJOR_AXIS":"6925.379","OBJECT_ID":"2021-027W","MEAN_MOTION_DDOT":"0.0000000000000","CENTER_NAME":"EARTH","MEAN_ELEMENT_THEORY":"SGP4","GP_ID":"189271729","ARG_OF_PERICENTER":"82.1859","MEAN_MOTION":"15.06390092","REV_AT_EPOCH":"3387","PERIOD":"95.593","OBJECT_NAME":"STARLINK-2449","TLE_LINE2":"2 48112  53.0582  79.3636 0001273  82.1859 277.9274 15.06390092 33875","RCS_SIZE":"LARGE","RA_OF_ASC_NODE":"79.3636","COUNTRY_CODE":"US","PERIAPSIS":"546.362","NORAD_CAT_ID":"48112","TIME_SYSTEM":"UTC","EPOCH":"2021-11-08T11:55:46.495488","APOAPSIS":"548.126","EPHEMERIS_TYPE":"0","INCLINATION":"53.0582","DECAY_DATE":null,"OBJECT_TYPE":"PAYLOAD","BSTAR":"0.00012074000000","SITE":"AFETR","FILE":"3209238","ECCENTRICITY":"0.00012730","MEAN_MOTION_DOT":"0.00001517","MEAN_ANOMALY":"277.9274","CLASSIFICATION_TYPE":"U","ELEMENT_SET_NO":"999","LAUNCH_DATE":"2021-04-07","TLE_LINE1":"1 48112U 21027W   21312.49706592  .00001517  00000-0  12074-3 0  9990"},{"OBJECT_TYPE":"PAYLOAD","DECAY_DATE":null,"MEAN_MOTION_DOT":"0.00003469","ECCENTRICITY":"0.00013700","FILE":"3209238","SITE":"AFETR","BSTAR":"0.00025180000000","CLASSIFICATION_TYPE":"U","MEAN_ANOMALY":"293.9707","TLE_LINE1":"1 48113U 21027X   21312.44871122  .00003469  00000-0  25180-3 0  9998","LAUNCH_DATE":"2021-04-07","ELEMENT_SET_NO":"999","SEMIMAJOR_AXIS":"6925.401","REF_FRAME":"TEME","ARG_OF_PERICENTER":"66.1425","MEAN_MOTION":"15.06382931","REV_AT_EPOCH":"3392","CENTER_NAME":"EARTH","MEAN_MOTION_DDOT":"0.0000000000000","GP_ID":"189272479","MEAN_ELEMENT_THEORY":"SGP4","OBJECT_ID":"2021-027X","RA_OF_ASC_NODE":"74.5701","RCS_SIZE":"LARGE","TLE_LINE2":"2 48113  53.0565  74.5701 0001370  66.1425 293.9707 15.06382931 33924","PERIOD":"95.593","OBJECT_NAME":"STARLINK-2450","APOAPSIS":"548.215","EPHEMERIS_TYPE":"0","INCLINATION":"53.0565","EPOCH":"2021-11-08T10:46:08.649408","TIME_SYSTEM":"UTC","NORAD_CAT_ID":"48113","COUNTRY_CODE":"US","PERIAPSIS":"546.317"},{"RCS_SIZE":"LARGE","RA_OF_ASC_NODE":"69.7507","OBJECT_NAME":"STARLINK-2451","PERIOD":"95.593","TLE_LINE2":"2 48114  53.0571  69.7507 0001409  77.6910 282.4236 15.06391705 34000","INCLINATION":"53.0571","EPHEMERIS_TYPE":"0","APOAPSIS":"548.215","PERIAPSIS":"546.263","COUNTRY_CODE":"US","NORAD_CAT_ID":"48114","TIME_SYSTEM":"UTC","EPOCH":"2021-11-08T09:49:42.029472","SEMIMAJOR_AXIS":"6925.374","REF_FRAME":"TEME","ARG_OF_PERICENTER":"77.6910","REV_AT_EPOCH":"3400","MEAN_MOTION":"15.06391705","OBJECT_ID":"2021-027Y","MEAN_ELEMENT_THEORY":"SGP4","GP_ID":"189270728","MEAN_MOTION_DDOT":"0.0000000000000","CENTER_NAME":"EARTH","CLASSIFICATION_TYPE":"U","MEAN_ANOMALY":"282.4236","LAUNCH_DATE":"2021-04-07","TLE_LINE1":"1 48114U 21027Y   21312.40951423  .00003263  00000-0  23789-3 0  9993","ELEMENT_SET_NO":"999","OBJECT_TYPE":"PAYLOAD","DECAY_DATE":null,"ECCENTRICITY":"0.00014090","FILE":"3209238","MEAN_MOTION_DOT":"0.00003263","BSTAR":"0.00023789000000","SITE":"AFETR"},{"INCLINATION":"53.0564","EPHEMERIS_TYPE":"0","APOAPSIS":"548.259","EPOCH":"2021-11-08T13:41:17.561760","TIME_SYSTEM":"UTC","NORAD_CAT_ID":"48115","COUNTRY_CODE":"US","PERIAPSIS":"546.373","RA_OF_ASC_NODE":"64.0195","RCS_SIZE":"LARGE","TLE_LINE2":"2 48115  53.0564  64.0195 0001362  72.6678 287.4460 15.06366642 34093","OBJECT_NAME":"STARLINK-2452","PERIOD":"95.594","REV_AT_EPOCH":"3409","MEAN_MOTION":"15.06366642","ARG_OF_PERICENTER":"72.6678","GP_ID":"189270978","MEAN_ELEMENT_THEORY":"SGP4","MEAN_MOTION_DDOT":"0.0000000000000","CENTER_NAME":"EARTH","OBJECT_ID":"2021-027Z","SEMIMAJOR_AXIS":"6925.451","REF_FRAME":"TEME","TLE_LINE1":"1 48115U 21027Z   21312.57034215  .00002835  00000-0  20931-3 0  9993","LAUNCH_DATE":"2021-04-07","ELEMENT_SET_NO":"999","CLASSIFICATION_TYPE":"U","MEAN_ANOMALY":"287.4460","MEAN_MOTION_DOT":"0.00002835","ECCENTRICITY":"0.00013620","FILE":"3209238","SITE":"AFETR","BSTAR":"0.00020931000000","OBJECT_TYPE":"PAYLOAD","DECAY_DATE":null},{"REV_AT_EPOCH":"3354","ARG_OF_PERICENTER":"80.8019","MEAN_MOTION":"15.06403896","OBJECT_ID":"2021-027AA","MEAN_MOTION_DDOT":"0.0000000000000","CENTER_NAME":"EARTH","GP_ID":"189278775","MEAN_ELEMENT_THEORY":"SGP4","SEMIMAJOR_AXIS":"6925.337","REF_FRAME":"TEME","APOAPSIS":"548.230","EPHEMERIS_TYPE":"0","INCLINATION":"53.0553","COUNTRY_CODE":"US","PERIAPSIS":"546.173","TIME_SYSTEM":"UTC","EPOCH":"2021-11-08T12:16:22.423296","NORAD_CAT_ID":"48116","RCS_SIZE":"LARGE","RA_OF_ASC_NODE":"74.3030","PERIOD":"95.592","OBJECT_NAME":"STARLINK-2454","TLE_LINE2":"2 48116  53.0553  74.3030 0001485  80.8019 279.3138 15.06403896 33544","FILE":"3209499","ECCENTRICITY":"0.00014850","MEAN_MOTION_DOT":"0.00007924","SITE":"AFETR","BSTAR":"0.00055017000000","OBJECT_TYPE":"PAYLOAD","DECAY_DATE":null,"LAUNCH_DATE":"2021-04-07","TLE_LINE1":"1 48116U 21027AA  21312.51137064  .00007924  00000-0  55017-3 0  9991","ELEMENT_SET_NO":"999","CLASSIFICATION_TYPE":"U","MEAN_ANOMALY":"279.3138"},{"BSTAR":"0.00055797000000","SITE":"AFETR","ECCENTRICITY":"0.00012230","FILE":"3209322","MEAN_MOTION_DOT":"0.00008037","DECAY_DATE":null,"OBJECT_TYPE":"PAYLOAD","ELEMENT_SET_NO":"999","LAUNCH_DATE":"2021-04-07","TLE_LINE1":"1 48117U 21027AB  21312.55008478  .00008037  00000-0  55797-3 0  9993","MEAN_ANOMALY":"285.8724","CLASSIFICATION_TYPE":"U","OBJECT_ID":"2021-027AB","CENTER_NAME":"EARTH","MEAN_MOTION_DDOT":"0.0000000000000","MEAN_ELEMENT_THEORY":"SGP4","GP_ID":"189275605","MEAN_MOTION":"15.06388491","REV_AT_EPOCH":"3383","ARG_OF_PERICENTER":"74.2400","REF_FRAME":"TEME","SEMIMAJOR_AXIS":"6925.384","PERIAPSIS":"546.402","COUNTRY_CODE":"US","TIME_SYSTEM":"UTC","NORAD_CAT_ID":"48117","EPOCH":"2021-11-08T13:12:07.324992","APOAPSIS":"548.096","INCLINATION":"53.0556","EPHEMERIS_TYPE":"0","PERIOD":"95.593","OBJECT_NAME":"STARLINK-2455","TLE_LINE2":"2 48117  53.0556  54.1093 0001223  74.2400 285.8724 15.06388491 33832","RCS_SIZE":"LARGE","RA_OF_ASC_NODE":"54.1093"},{"DECAY_DATE":null,"OBJECT_TYPE":"PAYLOAD","BSTAR":"0.00025347000000","SITE":"AFETR","MEAN_MOTION_DOT":"0.00003496","ECCENTRICITY":"0.00012780","FILE":"3209238","MEAN_ANOMALY":"278.1483","CLASSIFICATION_TYPE":"U","ELEMENT_SET_NO":"999","TLE_LINE1":"1 48118U 21027AC  21312.56111247  .00003496  00000-0  25347-3 0  9996","LAUNCH_DATE":"2021-04-07","REF_FRAME":"TEME","SEMIMAJOR_AXIS":"6925.347","CENTER_NAME":"EARTH","MEAN_MOTION_DDOT":"0.0000000000000","GP_ID":"189271228","MEAN_ELEMENT_THEORY":"SGP4","OBJECT_ID":"2021-027AC","ARG_OF_PERICENTER":"81.9651","MEAN_MOTION":"15.06400532","REV_AT_EPOCH":"3423","TLE_LINE2":"2 48118  53.0560  54.0573 0001278  81.9651 278.1483 15.06400532 34236","PERIOD":"95.592","OBJECT_NAME":"STARLINK-2458","RA_OF_ASC_NODE":"54.0573","RCS_SIZE":"LARGE","TIME_SYSTEM":"UTC","EPOCH":"2021-11-08T13:28:00.117408","NORAD_CAT_ID":"48118","PERIAPSIS":"546.327","COUNTRY_CODE":"US","APOAPSIS":"548.097","EPHEMERIS_TYPE":"0","INCLINATION":"53.0560"}];
